{
  "norad_id": 67898,
  "name": "STARLINK-36810",
  "history": [
    {
      "epoch": "2026-03-28T19:02:36.776544",
      "apogee_km": 344.8306125876188,
      "perigee_km": 342.989443906582,
      "latitude_deg": -64.31465007265793,
      "longitude_deg": -34.02580383978784,
      "semi_major_axis_km": 6722.047028247101,
      "eccentricity": 0.00013695,
      "inclination_deg": 97.2868,
      "raan_deg": 21.1731,
      "arg_perigee_deg": 93.138,
      "mean_anomaly_deg": 267.0042,
      "mean_motion_rev_day": 15.7525346
    }
  ]
}